SAUDISAT 1C (SO-50)     
1 27607U 02058C   26169.30164588  .00000775  00000+0  10896-3 0  9991
2 27607  64.5511 125.5368 0075196 262.2633  96.9930 14.83049007264620
SAUDISAT 2              
1 28371U 04025F   26168.99060768  .00000183  00000+0  52053-4 0  9990
2 28371  98.5507 168.9933 0023567 295.6692  64.2072 14.56684310165863
SAUDISAT 3              
1 31118U 07012B   26169.27872101  .00000199  00000+0  40300-4 0  9995
2 31118  98.1456 119.6801 0013698 220.1003 139.9193 14.71426182 27909
PISAT                   
1 41784U 16059B   26168.96139996  .00000656  00000+0  11936-3 0  9999
2 41784  97.8178 169.3809 0028443 200.2325 159.7756 14.68984509519859
FLYING LAPTOP           
1 42831U 17042G   26169.25204664  .00002494  00000+0  19836-3 0  9993
2 42831  97.4691 324.7430 0019595 118.1419 242.1788 15.01150483486618
SALSAT                  
1 46495U 20068K   26168.99584059  .00006301  00000+0  22102-3 0  9995
2 46495  97.8849 172.1096 0008017 304.7591  55.2892 15.29809762315487
